     2.10           G: GLONASS NAV DATA                     RINEX VERSION / TYPE
teqc  2015Jun23                         20210604 02:25:49UTCPGM / RUN BY / DATE
Linux 2.4.21-27.ELsmp|Opteron|gcc -static|Linux x86_64|=+   COMMENT
  2021     5    11    1.909211277962D-08                    CORR TO SYSTEM TIME
                                                            END OF HEADER
 3 21  5 12 11 15  0.0 3.581214696169D-05 9.094947017729D-13 3.960000000000D+04
   -9.321137207031D+03 3.655815124512D-01 9.313225746155D-10 0.000000000000D+00
    1.863560107422D+04-1.985206604004D+00-1.862645149231D-09 5.000000000000D+00
    1.479771484375D+04 2.734686851501D+00-9.313225746155D-10 0.000000000000D+00
 4 21  5 12 11 15  0.0 8.644536137581D-05 1.818989403546D-12 3.960000000000D+04
   -2.336073242188D+03 1.521387100220D-01 9.313225746155D-10 0.000000000000D+00
    2.535261328125D+04 2.398910522461D-01-1.862645149231D-09 6.000000000000D+00
   -1.570846679688D+03 3.569831848145D+00 0.000000000000D+00 0.000000000000D+00
15 21  5 12 11 15  0.0 1.038769260049D-04-0.000000000000D+00 3.960000000000D+04
    6.121993652344D+03-2.036794662476D+00 0.000000000000D+00 0.000000000000D+00
    1.586503076172D+04-1.626070976257D+00-9.313225746155D-10 0.000000000000D+00
   -1.899447607422D+04-2.012724876404D+00 1.862645149231D-09 0.000000000000D+00
16 21  5 12 11 15  0.0-1.501105725765D-05 0.000000000000D+00 3.960000000000D+04
    1.980165917969D+04-2.729578018188D-01 3.725290298462D-09 0.000000000000D+00
    1.587211816406D+04-3.656473159790D-01-0.000000000000D+00-1.000000000000D+00
   -3.204507812500D+03-3.511671066284D+00 2.793967723846D-09 0.000000000000D+00
17 21  5 12 11 15  0.0 4.233969375491D-04 2.728484105319D-12 3.960000000000D+04
   -2.103067480469D+04-8.302984237671D-01-1.862645149231D-09 0.000000000000D+00
    1.246327929688D+04 5.816516876221D-01-1.862645149231D-09 4.000000000000D+00
    7.229674804688D+03-3.422704696655D+00-1.862645149231D-09 0.000000000000D+00
18 21  5 12 11 15  0.0 7.622409611940D-05 9.094947017729D-13 3.960000000000D+04
   -7.987103027344D+03-2.523488044739D+00 9.313225746155D-10 0.000000000000D+00
    1.321215234375D+04 1.182033538818D+00-9.313225746155D-10-3.000000000000D+00
    2.033392773438D+04-1.754758834839D+00-1.862645149231D-09 0.000000000000D+00
 5 21  5 12 11 45  0.0 7.157959043980D-05 9.094947017729D-13 4.140000000000D+04
    5.876548339844D+03 1.681547164917D-01 0.000000000000D+00 0.000000000000D+00
    2.164256640625D+04 1.666141510010D+00-1.862645149231D-09 1.000000000000D+00
   -1.215672412109D+04 3.041289329529D+00 1.862645149231D-09 0.000000000000D+00
 3 21  5 12 11 45  0.0 3.581400960684D-05 9.094947017729D-13 4.140000000000D+04
   -8.910164550781D+03 6.170082092285D-02 0.000000000000D+00 0.000000000000D+00
    1.447493115234D+04-2.601161956787D+00-9.313225746155D-10 5.000000000000D+00
    1.908818408203D+04 2.001778602600D+00-1.862645149231D-09 0.000000000000D+00
 4 21  5 12 11 45  0.0 8.644908666611D-05 1.818989403546D-12 4.140000000000D+04
   -2.008866699219D+03 1.701221466064D-01 9.313225746155D-10 0.000000000000D+00
    2.497418408203D+04-6.588516235352D-01-1.862645149231D-09 6.000000000000D+00
    4.832576171875D+03 3.498909950256D+00-0.000000000000D+00 0.000000000000D+00
15 21  5 12 11 45  0.0 1.038769260049D-04-0.000000000000D+00 4.140000000000D+04
    1.930663085938D+03-2.591151237488D+00-1.862645149231D-09 0.000000000000D+00
    1.301423632812D+04-1.501104354858D+00-9.313225746155D-10 0.000000000000D+00
   -2.183504345703D+04-1.122913360596D+00 1.862645149231D-09 0.000000000000D+00
16 21  5 12 11 45  0.0-1.501012593508D-05 0.000000000000D+00 4.140000000000D+04
    1.860744970703D+04-1.062182426453D+00 2.793967723846D-09 0.000000000000D+00
    1.487231152344D+04-7.050380706787D-01-9.313225746155D-10-1.000000000000D+00
   -9.321645019531D+03-3.241381645203D+00 2.793967723846D-09 0.000000000000D+00
17 21  5 12 11 45  0.0 4.234015941620D-04 2.728484105319D-12 4.140000000000D+04
   -2.175894384766D+04 1.079940795898D-02-2.793967723846D-09 0.000000000000D+00
    1.325111621094D+04 2.523412704468D-01-1.862645149231D-09 4.000000000000D+00
    8.685092773438D+02-3.599273681641D+00-1.862645149231D-09 0.000000000000D+00
18 21  5 12 11 45  0.0 7.622689008713D-05 9.094947017729D-13 4.140000000000D+04
   -1.195358691406D+04-1.857231140137D+00-0.000000000000D+00 0.000000000000D+00
    1.546593798828D+04 1.280364990234D+00-1.862645149231D-09-3.000000000000D+00
    1.643229589844D+04-2.552253723145D+00-1.862645149231D-09 0.000000000000D+00
 5 21  5 12 12 15  0.0 7.158145308495D-05 9.094947017729D-13 4.320000000000D+04
    6.327368652344D+03 2.935495376587D-01 0.000000000000D+00 0.000000000000D+00
    2.390545654297D+04 8.300495147705D-01-2.793967723846D-09 1.000000000000D+00
   -6.283249511719D+03 3.442395210266D+00 9.313225746155D-10 0.000000000000D+00
 3 21  5 12 12 15  0.0 3.581680357456D-05 9.094947017729D-13 4.320000000000D+04
   -9.179211425781D+03-3.750076293945D-01 0.000000000000D+00 0.000000000000D+00
    9.424812988281D+03-2.962753295898D+00-9.313225746155D-10 5.000000000000D+00
    2.191165527344D+04 1.115154266357D+00-2.793967723846D-09 0.000000000000D+00
 4 21  5 12 12 15  0.0 8.645188063383D-05 1.818989403546D-12 4.320000000000D+04
   -1.867780273438D+03-5.064105987549D-02 0.000000000000D+00 0.000000000000D+00
    2.302158593750D+04-1.489890098572D+00-1.862645149231D-09 6.000000000000D+00
    1.086274267578D+04 3.157878875732D+00-9.313225746155D-10 0.000000000000D+00
15 21  5 12 12 15  0.0 1.038759946823D-04-0.000000000000D+00 4.320000000000D+04
   -3.074741210938D+03-2.927565574646D+00-2.793967723846D-09 0.000000000000D+00
    1.058698388672D+04-1.167407035828D+00-9.313225746155D-10 0.000000000000D+00
   -2.298459765625D+04-1.460542678833D-01 9.313225746155D-10 0.000000000000D+00
16 21  5 12 12 15  0.0-1.501012593508D-05 0.000000000000D+00 4.320000000000D+04
    1.598189892578D+04-1.844493865967D+00 9.313225746155D-10 0.000000000000D+00
    1.348465039062D+04-7.948036193848D-01-9.313225746155D-10-1.000000000000D+00
   -1.472389355469D+04-2.722408294678D+00 2.793967723846D-09 0.000000000000D+00
17 21  5 12 12 15  0.0 4.234071820974D-04 2.728484105319D-12 4.320000000000D+04
   -2.106231640625D+04 7.351074218750D-01-3.725290298462D-09 0.000000000000D+00
    1.323761865234D+04-2.990579605103D-01-9.313225746155D-10 4.000000000000D+00
   -5.559944824219D+03-3.496969223022D+00-9.313225746155D-10 0.000000000000D+00
18 21  5 12 12 15  0.0 7.622968405485D-05 9.094947017729D-13 4.320000000000D+04
   -1.461126757812D+04-1.088283538818D+00-1.862645149231D-09 0.000000000000D+00
    1.766064794922D+04 1.112203598022D+00-1.862645149231D-09-3.000000000000D+00
    1.126430322266D+04-3.152775764465D+00-1.862645149231D-09 0.000000000000D+00
19 21  5 12 12 15  0.0-1.434125006199D-04-9.094947017729D-13 4.455000000000D+04
   -1.430246093750D+03-2.365523338318D+00 1.862645149231D-09 0.000000000000D+00
    1.307523632812D+04 1.845026016235D+00-9.313225746155D-10 3.000000000000D+00
    2.185120849609D+04-1.258337974548D+00-1.862645149231D-09 0.000000000000D+00
 5 21  5 12 12 45  0.0 7.158331573009D-05 9.094947017729D-13 4.500000000000D+04
    6.785371582031D+03 1.738815307617D-01 0.000000000000D+00 0.000000000000D+00
    2.460031250000D+04-5.654525756836D-02-2.793967723846D-09 1.000000000000D+00
    7.579589843750D+01 3.577357292175D+00 0.000000000000D+00 0.000000000000D+00
15 21  5 12 12 45  0.0 1.038750633597D-04-0.000000000000D+00 4.500000000000D+04
   -8.438431152344D+03-2.981854438782D+00-3.725290298462D-09 0.000000000000D+00
    8.885456542969D+03-7.112073898315D-01-0.000000000000D+00 0.000000000000D+00
   -2.235403515625D+04 8.421134948730D-01 0.000000000000D+00 0.000000000000D+00
 4 21  5 12 12 45  0.0 8.645560592413D-05 1.818989403546D-12 4.500000000000D+04
   -2.307925292969D+03-4.647579193115D-01 0.000000000000D+00 0.000000000000D+00
    1.971603173828D+04-2.146114349365D+00-1.862645149231D-09 6.000000000000D+00
    1.605457128906D+04 2.573525428772D+00-1.862645149231D-09 0.000000000000D+00
17 21  5 12 12 45  0.0 4.234127700329D-04 2.728484105319D-12 4.500000000000D+04
   -1.923902294922D+04 1.249889373779D+00-4.656612873077D-09 0.000000000000D+00
    1.208670654297D+04-9.958257675171D-01-0.000000000000D+00 4.000000000000D+00
   -1.155758007812D+04-3.123714447021D+00-9.313225746155D-10 0.000000000000D+00
18 21  5 12 12 45  0.0 7.623340934515D-05 9.094947017729D-13 4.500000000000D+04
   -1.588007080078D+04-3.335523605347D-01-2.793967723846D-09 0.000000000000D+00
    1.930803515625D+04 6.758871078491D-01-9.313225746155D-10-3.000000000000D+00
    5.228465332031D+03-3.510320663452D+00-1.862645149231D-09 0.000000000000D+00
19 21  5 12 12 45  0.0-1.434152945876D-04-9.094947017729D-13 4.500000000000D+04
   -5.159442871094D+03-1.755013465881D+00-0.000000000000D+00 0.000000000000D+00
    1.647961132812D+04 1.891675949097D+00-1.862645149231D-09 3.000000000000D+00
    1.877053173828D+04-2.142402648926D+00-1.862645149231D-09 0.000000000000D+00
 6 21  5 12 12 45  0.0 1.978203654289D-04 0.000000000000D+00 4.575000000000D+04
    1.294405126953D+04 7.961854934692D-01-0.000000000000D+00 0.000000000000D+00
    1.312382617188D+04 2.280486106873D+00-1.862645149231D-09-4.000000000000D+00
   -1.764495849609D+04 2.278658866882D+00 1.862645149231D-09 0.000000000000D+00
 5 21  5 12 13 15  0.0 7.158424705267D-05 9.094947017729D-13 4.680000000000D+04
    6.811047363281D+03-1.814622879028D-01 0.000000000000D+00 0.000000000000D+00
    2.374213525391D+04-8.764905929565D-01-2.793967723846D-09 1.000000000000D+00
    6.429029296875D+03 3.436025619507D+00-0.000000000000D+00 0.000000000000D+00
 6 21  5 12 13 15  0.0 1.978222280741D-04 0.000000000000D+00 4.680000000000D+04
    1.445516894531D+04 8.426094055176D-01-0.000000000000D+00 0.000000000000D+00
    1.659700976562D+04 1.557083129883D+00-1.862645149231D-09-4.000000000000D+00
   -1.291494824219D+04 2.942813873291D+00 1.862645149231D-09 0.000000000000D+00
